{
  "type": "FeatureCollection",
  "name": "Untitled layer",
  "crs": { "type": "name", "properties": { "name": "urn:ogc:def:crs:OGC:1.3:CRS84" } },
  "features": [
    {
      "type": "Feature",
      "properties": { "Name": "Polygon 1", "tessellate": -1, "extrude": 0, "visibility": -1 },
      "geometry": {
        "type": "Polygon",
        "coordinates": [
          [
            [107.5608658, -6.8963791],
            [107.5632912, -6.9507437],
            [107.5337654, -7.0125947],
            [107.5111061, -7.0199209],
            [107.5220924, -7.0449653],
            [107.6005417, -7.0596165],
            [107.6195961, -7.019069],
            [107.7026802, -7.0296321],
            [107.7500587, -6.9616492],
            [107.7622467, -6.9304657],
            [107.7284294, -6.9200707],
            [107.7047401, -6.8941676],
            [107.6664596, -6.8774661],
            [107.6377922, -6.8725237],
            [107.6436287, -6.8558215],
            [107.5838905, -6.8490041],
            [107.5608658, -6.8963791]
          ]
        ]
      }
    }
  ]
}
